#aV2021  3  8  0  0  0.00000000     288 DD+AD WGS84 FIT  NGA
## 2148  86400.00000000   300.00000000 59281 0.0000000000000
+   32     1  2  3  4  5  6  7  8  9 10 11 12 13 14 15 16 17
+         18 19 20 21 22 23 24 25 26 27 28 29 30 31 32  0  0
+          0  0  0  0  0  0  0  0  0  0  0  0  0  0  0  0  0
+          0  0  0  0  0  0  0  0  0  0  0  0  0  0  0  0  0
+          0  0  0  0  0  0  0  0  0  0  0  0  0  0  0  0  0
++         2  2  2  2  2  2  2  2  2  2  2  2  2  2  2  2  2
++         2  2  2  2  2  2  2  2  2  2  2  2  2  2  2  0  0
++         0  0  0  0  0  0  0  0  0  0  0  0  0  0  0  0  0
++         0  0  0  0  0  0  0  0  0  0  0  0  0  0  0  0  0
++         0  0  0  0  0  0  0  0  0  0  0  0  0  0  0  0  0
%c cc cc ccc ccc cccc cccc cccc cccc ccccc ccccc ccccc ccccc
%c cc cc ccc ccc cccc cccc cccc cccc ccccc ccccc ccccc ccccc
%f  0.0000000  0.000000000  0.00000000000  0.000000000000000
%f  0.0000000  0.000000000  0.00000000000  0.000000000000000
%i    0    0    0    0      0      0      0      0         0
%i    0    0    0    0      0      0      0      0         0
/*      NGA, ST. LOUIS,MO.                                  
/*   EPHEMERIS COMPUTED FROM 2 DAYS OF DATA                 
/*   EPOCHA v5 SMOOTHER                                     
/*   G2139 IERS2010 SATAF SATAPC                            
*  2021  3  8 23 15  0.00000000
P  1  15486.144147   1433.703255  21339.339010    745.598636                    
V  1   8468.744584  26218.987533  -7486.145098     -0.085413                    
P  2 -13834.782714 -21690.303433  -5862.004658   -584.216342                    
V  2   -708.119542  -8739.651486  30623.809671     -0.037441                    
P  3  20571.840025  -9185.217741  13902.456347   -102.754122                    
V  3 -10069.705122  14841.969614  24669.852671     -0.104558                    
P  4  25689.461923    929.351551  -6791.688251   -184.998370                    
V  4   7825.352442   4469.795920  30137.255853     -0.023448                    
P  5 -13260.316786  -8025.854058 -21729.725077    -35.684930                    
V  5  16955.368166 -21321.780769  -2308.179515     -0.010547                    
P  6  -5199.459273 -25506.988947   5188.109161     -0.062994                    
V  6   4114.378079   5452.562438  31369.465062      0.017631                    
P  7   9929.073682 -14251.075025 -19614.516905     83.549213                    
V  7   9756.851917  23961.901652 -12744.147593      0.126172                    
P  8  26202.328309   5183.077368   -925.918495    -12.999261                    
V  8  -1545.493169   2092.195441 -31692.132763     -0.014201                    
P  9  19461.342468  -8256.935815 -16150.522993   -329.413150                    
V  9  19767.619379   5462.487955  21081.372609     -0.032510                    
P 10  -9186.207972  22277.989470  10976.192167    -76.957940                    
V 10 -10849.250914   8938.290464 -27762.990905     -0.079905                    
P 11  21309.679678   4662.010051  14464.013084     -4.269703                    
V 11  11837.733754  15772.496239 -22220.224111      0.106343                    
P 12 -20153.672894   4478.172960  16372.104308    -11.236697                    
V 12  13791.971256 -16315.145242  21268.250370     -0.053051                    
P 13 -21285.076022 -13423.063415  -8828.598709    105.584217                    
V 13  11123.029440   1322.740607 -29151.578850      0.044318                    
P 14  11344.147777 -21944.053555   9731.986417     99.765863                    
V 14  10411.818380  -7194.318225 -28338.648155      0.004648                    
P 15 -26600.068416  -2784.715702  -1056.758836   -164.442194                    
V 15   1174.826612  -3412.071598 -30775.827120      0.025971                    
P 16  10395.987040  10847.140331 -22139.516434   -291.093150                    
V 16 -19921.103867  18950.998121    384.669522     -0.057790                    
P 17   2627.131919 -14720.141328  22379.914629    406.458610                    
V 17  26496.719565   6639.471158   1279.728110      0.063442                    
P 18  -7673.937182  17519.444185 -18408.961816    349.987545                    
V 18  -8575.698386 -21787.874455 -17220.356837      0.010665                    
P 19  -6642.747487 -15930.125933  19932.474458    -28.893283                    
V 19  25015.439424   6601.077371  13330.449526      0.050059                    
P 20 -15325.107143  21435.757002  -1836.000115    524.340708                    
V 20  -1954.551471  -3980.677494 -31280.325075     -0.001929                    
P 21  17964.250079   8870.490718  18383.952315    101.581365                    
V 21   7514.083427  20432.818999 -17480.011312      0.030624                    
P 22  18168.422260   -692.074157  19502.909720   -664.505824                    
V 22 -12865.535217  20903.374102  13034.288644      0.079401                    
P 23 -16619.219867  20685.403891    375.837222    117.908213                    
V 23  -2468.301102  -1374.289705 -31832.035514     -0.006791                    
P 24 -17705.762915  -6556.971042  18583.802881      1.335923                    
V 24  -7958.754672 -22761.934753 -15022.868898     -0.005772                    
P 25 -19549.160115  16796.229450   5513.407909     95.032134                    
V 25   2569.649113  -7538.238922  30908.902268      0.075019                    
P 26   2476.824662  18686.637228 -18662.058526     55.341080                    
V 26 -16174.548344  17468.945340  15654.538210      0.053748                    
P 27  20218.227164  12419.216486 -12470.041248    -90.344268                    
V 27 -15437.406657  -1309.735599 -26323.975133     -0.072147                    
P 28   9645.256906 -21500.797819  12995.968513    604.997312                    
V 28  12346.857036  -9534.105651 -25883.490709     -0.056618                    
P 29 -19680.819295   6270.177418 -16763.164091   -308.336447                    
V 29 -20084.890189  -6705.744944  21087.224635     -0.069256                    
P 30   1566.533036 -23616.549429 -11774.443867   -395.606063                    
V 30   7609.586633  13488.663222 -26159.989506     -0.055673                    
P 31   6540.148744  25383.683792   2135.378301   -104.443486                    
V 31  -4071.946114  -1687.007102  31799.274251     -0.022528                    
P 32   -148.855648  15487.410270  21688.264626     20.779900                    
V 32 -26888.528552  -4723.010396   3035.918636      0.008052                    
EOF
